{
  "type": "FeatureCollection",
  "features": [
    {
      "type": "Feature",
      "properties": {
        "norad_id": 41829,
        "name": "FENGYUN 1C DEB",
        "group": "fengyun-1c-debris",
        "lat": 81.23266450912242,
        "lon": -36.985378014088425,
        "alt_km": 824.5353665204811,
        "timestamp": "2025-12-13T10:41:26.056628+00:00",
        "meta_object_name": "FENGYUN 1C DEB",
        "meta_object_id": "1999-025EYG",
        "meta_epoch": "2025-12-12T22:28:04.283616",
        "meta_mean_motion": 14.25124453,
        "meta_eccentricity": 0.00564679,
        "meta_inclination": 98.7444,
        "meta_ra_of_asc_node": 56.1484,
        "meta_arg_of_pericenter": 218.4421,
        "meta_mean_anomaly": 141.2729,
        "meta_ephemeris_type": 0,
        "meta_classification_type": "U",
        "meta_norad_cat_id": 41829,
        "meta_element_set_no": 999,
        "meta_rev_at_epoch": 47310,
        "meta_bstar": 0.0022745195,
        "meta_mean_motion_dot": 5.385e-05,
        "meta_mean_motion_ddot": 0,
        "tle_line1": "1 41829U 99025EYG 25346.93616069  .00005385  00000+0  22745-2 0  9991",
        "tle_line2": "2 41829  98.7444  56.1484 0056467 218.4421 141.2729 14.25124453473102"
      },
      "geometry": {
        "type": "Point",
        "coordinates": [
          -36.985378014088425,
          81.23266450912242
        ]
      }
    },
    {
      "type": "Feature",
      "properties": {
        "norad_id": 41830,
        "name": "FENGYUN 1C DEB",
        "group": "fengyun-1c-debris",
        "lat": -80.23976182607805,
        "lon": 123.00847487442464,
        "alt_km": 791.0865507310446,
        "timestamp": "2025-12-13T10:41:26.056638+00:00",
        "meta_object_name": "FENGYUN 1C DEB",
        "meta_object_id": "1999-025EYH",
        "meta_epoch": "2025-12-10T03:58:08.847552",
        "meta_mean_motion": 14.26414557,
        "meta_eccentricity": 0.00545762,
        "meta_inclination": 98.7522,
        "meta_ra_of_asc_node": 56.1482,
        "meta_arg_of_pericenter": 224.0147,
        "meta_mean_anomaly": 135.6681,
        "meta_ephemeris_type": 0,
        "meta_classification_type": "U",
        "meta_norad_cat_id": 41830,
        "meta_element_set_no": 999,
        "meta_rev_at_epoch": 47237,
        "meta_bstar": 0.0025035073,
        "meta_mean_motion_dot": 6.077e-05,
        "meta_mean_motion_ddot": 0,
        "tle_line1": "1 41830U 99025EYH 25344.16538018  .00006077  00000+0  25035-2 0  9997",
        "tle_line2": "2 41830  98.7522  56.1482 0054576 224.0147 135.6681 14.26414557472376"
      },
      "geometry": {
        "type": "Point",
        "coordinates": [
          123.00847487442464,
          -80.23976182607805
        ]
      }
    },
    {
      "type": "Feature",
      "properties": {
        "norad_id": 41831,
        "name": "FENGYUN 1C DEB",
        "group": "fengyun-1c-debris",
        "lat": 80.10999095816611,
        "lon": -63.84116893254629,
        "alt_km": 825.3028456595584,
        "timestamp": "2025-12-13T10:41:26.056648+00:00",
        "meta_object_name": "FENGYUN 1C DEB",
        "meta_object_id": "1999-025EYJ",
        "meta_epoch": "2025-12-13T00:07:46.284384",
        "meta_mean_motion": 14.24570322,
        "meta_eccentricity": 0.00562657,
        "meta_inclination": 98.7348,
        "meta_ra_of_asc_node": 53.8602,
        "meta_arg_of_pericenter": 220.4883,
        "meta_mean_anomaly": 139.2104,
        "meta_ephemeris_type": 0,
        "meta_classification_type": "U",
        "meta_norad_cat_id": 41831,
        "meta_element_set_no": 999,
        "meta_rev_at_epoch": 47263,
        "meta_bstar": 0.0023817187,
        "meta_mean_motion_dot": 5.579e-05,
        "meta_mean_motion_ddot": 0,
        "tle_line1": "1 41831U 99025EYJ 25347.00539681  .00005579  00000+0  23817-2 0  9993",
        "tle_line2": "2 41831  98.7348  53.8602 0056265 220.4883 139.2104 14.24570322472635"
      },
      "geometry": {
        "type": "Point",
        "coordinates": [
          -63.84116893254629,
          80.10999095816611
        ]
      }
    },
    {
      "type": "Feature",
      "properties": {
        "norad_id": 41832,
        "name": "FENGYUN 1C DEB",
        "group": "fengyun-1c-debris",
        "lat": 31.100416338112165,
        "lon": -123.21991599543024,
        "alt_km": 798.811008721993,
        "timestamp": "2025-12-13T10:41:26.056659+00:00",
        "meta_object_name": "FENGYUN 1C DEB",
        "meta_object_id": "1999-025EYK",
        "meta_epoch": "2025-12-12T15:26:39.804000",
        "meta_mean_motion": 14.24235381,
        "meta_eccentricity": 0.00555578,
        "meta_inclination": 98.7281,
        "meta_ra_of_asc_node": 50.6664,
        "meta_arg_of_pericenter": 225.8445,
        "meta_mean_anomaly": 133.8159,
        "meta_ephemeris_type": 0,
        "meta_classification_type": "U",
        "meta_norad_cat_id": 41832,
        "meta_element_set_no": 999,
        "meta_rev_at_epoch": 47349,
        "meta_bstar": 0.0024391234,
        "meta_mean_motion_dot": 5.675e-05,
        "meta_mean_motion_ddot": 0,
        "tle_line1": "1 41832U 99025EYK 25346.64351625  .00005675  00000+0  24391-2 0  9998",
        "tle_line2": "2 41832  98.7281  50.6664 0055557 225.8445 133.8159 14.24235381473499"
      },
      "geometry": {
        "type": "Point",
        "coordinates": [
          -123.21991599543024,
          31.100416338112165
        ]
      }
    },
    {
      "type": "Feature",
      "properties": {
        "norad_id": 41833,
        "name": "FENGYUN 1C DEB",
        "group": "fengyun-1c-debris",
        "lat": 1.0620539786775773,
        "lon": 56.84600372752109,
        "alt_km": 838.3710288897673,
        "timestamp": "2025-12-13T10:41:26.056669+00:00",
        "meta_object_name": "FENGYUN 1C DEB",
        "meta_object_id": "1999-025EYL",
        "meta_epoch": "2025-12-11T23:19:01.210656",
        "meta_mean_motion": 14.25800353,
        "meta_eccentricity": 0.0054333,
        "meta_inclination": 98.7476,
        "meta_ra_of_asc_node": 55.5389,
        "meta_arg_of_pericenter": 225.3834,
        "meta_mean_anomaly": 134.2907,
        "meta_ephemeris_type": 0,
        "meta_classification_type": "U",
        "meta_norad_cat_id": 41833,
        "meta_element_set_no": 999,
        "meta_rev_at_epoch": 47353,
        "meta_bstar": 0.0027448,
        "meta_mean_motion_dot": 6.587e-05,
        "meta_mean_motion_ddot": 0,
        "tle_line1": "1 41833U 99025EYL 25345.97154179  .00006587  00000+0  27448-2 0  9998",
        "tle_line2": "2 41833  98.7476  55.5389 0054333 225.3834 134.2907 14.25800353473531"
      },
      "geometry": {
        "type": "Point",
        "coordinates": [
          56.84600372752109,
          1.0620539786775773
        ]
      }
    },
    {
      "type": "Feature",
      "properties": {
        "norad_id": 43213,
        "name": "FENGYUN 1C DEB",
        "group": "fengyun-1c-debris",
        "lat": -19.05793128206071,
        "lon": -131.20204137689092,
        "alt_km": 781.8162539079631,
        "timestamp": "2025-12-13T10:41:26.056679+00:00",
        "meta_object_name": "FENGYUN 1C DEB",
        "meta_object_id": "1999-025EYM",
        "meta_epoch": "2025-12-11T15:35:29.120640",
        "meta_mean_motion": 14.2384299,
        "meta_eccentricity": 0.00550482,
        "meta_inclination": 98.7346,
        "meta_ra_of_asc_node": 50.0589,
        "meta_arg_of_pericenter": 230.6376,
        "meta_mean_anomaly": 128.9918,
        "meta_ephemeris_type": 0,
        "meta_classification_type": "U",
        "meta_norad_cat_id": 43213,
        "meta_element_set_no": 999,
        "meta_rev_at_epoch": 40357,
        "meta_bstar": 0.0023267016,
        "meta_mean_motion_dot": 5.369e-05,
        "meta_mean_motion_ddot": 0,
        "tle_line1": "1 43213U 99025EYM 25345.64964260  .00005369  00000+0  23267-2 0  9998",
        "tle_line2": "2 43213  98.7346  50.0589 0055048 230.6376 128.9918 14.23842990403577"
      },
      "geometry": {
        "type": "Point",
        "coordinates": [
          -131.20204137689092,
          -19.05793128206071
        ]
      }
    },
    {
      "type": "Feature",
      "properties": {
        "norad_id": 43214,
        "name": "FENGYUN 1C DEB",
        "group": "fengyun-1c-debris",
        "lat": 53.98918802661174,
        "lon": -115.63487005435907,
        "alt_km": 812.8207675755866,
        "timestamp": "2025-12-13T10:41:26.056690+00:00",
        "meta_object_name": "FENGYUN 1C DEB",
        "meta_object_id": "1999-025EYN",
        "meta_epoch": "2025-12-12T15:33:08.657568",
        "meta_mean_motion": 14.24129644,
        "meta_eccentricity": 0.00554324,
        "meta_inclination": 98.7357,
        "meta_ra_of_asc_node": 51.3598,
        "meta_arg_of_pericenter": 227.1113,
        "meta_mean_anomaly": 132.5405,
        "meta_ephemeris_type": 0,
        "meta_classification_type": "U",
        "meta_norad_cat_id": 43214,
        "meta_element_set_no": 999,
        "meta_rev_at_epoch": 40402,
        "meta_bstar": 0.0023772693,
        "meta_mean_motion_dot": 5.518e-05,
        "meta_mean_motion_ddot": 0,
        "tle_line1": "1 43214U 99025EYN 25346.64801687  .00005518  00000+0  23773-2 0  9991",
        "tle_line2": "2 43214  98.7357  51.3598 0055432 227.1113 132.5405 14.24129644404029"
      },
      "geometry": {
        "type": "Point",
        "coordinates": [
          -115.63487005435907,
          53.98918802661174
        ]
      }
    }
  ]
}